{"type": "FeatureCollection", "features": [ {"type": "Feature", "properties": {"norad_id": 28659, "name": "DIRECTV 8", "group": "intelsat", "lat": 0.0276331899747213, "lon": 134.34685860674483, "alt_km": 35797.63530317089, "timestamp": "2025-12-27T10:28:58.457708+00:00", "meta": {"OBJECT_NAME": "DIRECTV 8", "OBJECT_ID": "2005-019A", "EPOCH": "2025-12-26T09:14:16.477152", "MEAN_MOTION": 1.00271765, "ECCENTRICITY": 0.0003134, "INCLINATION": 0.0135, "RA_OF_ASC_NODE": 57.3028, "ARG_OF_PERICENTER": 228.1398, "MEAN_ANOMALY": 189.2168, "EPHEMERIS_TYPE": 0, "CLASSIFICATION_TYPE": "U", "NORAD_CAT_ID": 28659, "ELEMENT_SET_NO": 999, "REV_AT_EPOCH": 7534, "BSTAR": 0, "MEAN_MOTION_DOT": 2.3e-07, "MEAN_MOTION_DDOT": 0}, "tle": {"line1": "1 28659U 05019A   25360.38491293  .00000023  00000+0  00000+0 0  9993", "line2": "2 28659   0.0135  57.3028 0003134 228.1398 189.2168  1.00271765 75343"}}, "geometry": {"type": "Point", "coordinates": [134.34685860674483, 0.0276331899747213]}}, {"type": "Feature", "properties": {"norad_id": 28702, "name": "GALAXY 28 (G-28)", "group": "intelsat", "lat": 2.8613480926788295, "lon": 173.48571822507384, "alt_km": 35689.039315456874, "timestamp": "2025-12-27T10:28:58.457720+00:00", "meta": {"OBJECT_NAME": "GALAXY 28 (G-28)", "OBJECT_ID": "2005-022A", "EPOCH": "2025-12-27T04:19:27.648768", "MEAN_MOTION": 1.00599471, "ECCENTRICITY": 0.0003418, "INCLINATION": 2.8568, "RA_OF_ASC_NODE": 81.1139, "ARG_OF_PERICENTER": 161.5266, "MEAN_ANOMALY": 197.9493, "EPHEMERIS_TYPE": 0, "CLASSIFICATION_TYPE": "U", "NORAD_CAT_ID": 28702, "ELEMENT_SET_NO": 999, "REV_AT_EPOCH": 5024, "BSTAR": 0, "MEAN_MOTION_DOT": -2.35e-06, "MEAN_MOTION_DDOT": 0}, "tle": {"line1": "1 28702U 05022A   25361.18018112 -.00000235  00000+0  00000+0 0  9996", "line2": "2 28702   2.8568  81.1139 0003418 161.5266 197.9493  1.00599471 50245"}}, "geometry": {"type": "Point", "coordinates": [173.48571822507384, 2.8613480926788295]}}, {"type": "Feature", "properties": {"norad_id": 29236, "name": "GALAXY 16 (G-16)", "group": "intelsat", "lat": -0.01504922405957502, "lon": 154.367151679282, "alt_km": 35792.98355703248, "timestamp": "2025-12-27T10:28:58.457731+00:00", "meta": {"OBJECT_NAME": "GALAXY 16 (G-16)", "OBJECT_ID": "2006-023A", "EPOCH": "2025-12-27T04:20:38.793120", "MEAN_MOTION": 1.00271184, "ECCENTRICITY": 0.0002754, "INCLINATION": 0.0374, "RA_OF_ASC_NODE": 206.2569, "ARG_OF_PERICENTER": 73.3748, "MEAN_ANOMALY": 142.4352, "EPHEMERIS_TYPE": 0, "CLASSIFICATION_TYPE": "U", "NORAD_CAT_ID": 29236, "ELEMENT_SET_NO": 999, "REV_AT_EPOCH": 7124, "BSTAR": 0, "MEAN_MOTION_DOT": -1.04e-06, "MEAN_MOTION_DDOT": 0}, "tle": {"line1": "1 29236U 06023A   25361.18100455 -.00000104  00000+0  00000+0 0  9998", "line2": "2 29236   0.0374 206.2569 0002754  73.3748 142.4352  1.00271184 71247"}}, "geometry": {"type": "Point", "coordinates": [154.367151679282, -0.01504922405957502]}}, {"type": "Feature", "properties": {"norad_id": 29494, "name": "DIRECTV 9S", "group": "intelsat", "lat": 1.858054039874575, "lon": 152.1619270216842, "alt_km": 35794.279996615296, "timestamp": "2025-12-27T10:28:58.457743+00:00", "meta": {"OBJECT_NAME": "DIRECTV 9S", "OBJECT_ID": "2006-043A", "EPOCH": "2025-12-27T04:37:38.707104", "MEAN_MOTION": 1.00271328, "ECCENTRICITY": 0.0003126, "INCLINATION": 1.9755, "RA_OF_ASC_NODE": 83.0558, "ARG_OF_PERICENTER": 198.0561, "MEAN_ANOMALY": 143.0226, "EPHEMERIS_TYPE": 0, "CLASSIFICATION_TYPE": "U", "NORAD_CAT_ID": 29494, "ELEMENT_SET_NO": 999, "REV_AT_EPOCH": 4965, "BSTAR": 0, "MEAN_MOTION_DOT": -9.2e-07, "MEAN_MOTION_DDOT": 0}, "tle": {"line1": "1 29494U 06043A   25361.19280911 -.00000092  00000+0  00000+0 0  9999", "line2": "2 29494   1.9755  83.0558 0003126 198.0561 143.0226  1.00271328 49654"}}, "geometry": {"type": "Point", "coordinates": [152.1619270216842, 1.858054039874575]}}, {"type": "Feature", "properties": {"norad_id": 31307, "name": "GALAXY 17 (G-17)", "group": "intelsat", "lat": 2.537233211390214, "lon": 168.3498296093416, "alt_km": 35785.26599907871, "timestamp": "2025-12-27T10:28:58.457755+00:00", "meta": {"OBJECT_NAME": "GALAXY 17 (G-17)", "OBJECT_ID": "2007-016B", "EPOCH": "2025-12-27T01:44:56.304096", "MEAN_MOTION": 1.00271493, "ECCENTRICITY": 0.0005648, "INCLINATION": 2.5341, "RA_OF_ASC_NODE": 82.1204, "ARG_OF_PERICENTER": 174.6982, "MEAN_ANOMALY": 140.2373, "EPHEMERIS_TYPE": 0, "CLASSIFICATION_TYPE": "U", "NORAD_CAT_ID": 31307, "ELEMENT_SET_NO": 999, "REV_AT_EPOCH": 6807, "BSTAR": 0, "MEAN_MOTION_DOT": -1.85e-06, "MEAN_MOTION_DDOT": 0}, "tle": {"line1": "1 31307U 07016B   25361.07287389 -.00000185  00000+0  00000+0 0  9992", "line2": "2 31307   2.5341  82.1204 0005648 174.6982 140.2373  1.00271493 68076"}}, "geometry": {"type": "Point", "coordinates": [168.3498296093416, 2.537233211390214]}}, {"type": "Feature", "properties": {"norad_id": 31862, "name": "DIRECTV 10", "group": "intelsat", "lat": 0.006334287854335183, "lon": 150.67564831776562, "alt_km": 35783.467849917586, "timestamp": "2025-12-27T10:28:58.457766+00:00", "meta": {"OBJECT_NAME": "DIRECTV 10", "OBJECT_ID": "2007-032A", "EPOCH": "2025-12-25T09:09:15.831072", "MEAN_MOTION": 1.00280696, "ECCENTRICITY": 7.66e-05, "INCLINATION": 0.0126, "RA_OF_ASC_NODE": 126.575, "ARG_OF_PERICENTER": 111.4706, "MEAN_ANOMALY": 250.6263, "EPHEMERIS_TYPE": 0, "CLASSIFICATION_TYPE": "U", "NORAD_CAT_ID": 31862, "ELEMENT_SET_NO": 999, "REV_AT_EPOCH": 4385, "BSTAR": 0, "MEAN_MOTION_DOT": -8.3e-07, "MEAN_MOTION_DDOT": 0}, "tle": {"line1": "1 31862U 07032A   25359.38143323 -.00000083  00000+0  00000+0 0  9993", "line2": "2 31862   0.0126 126.5750 0000766 111.4706 250.6263  1.00280696 43852"}}, "geometry": {"type": "Point", "coordinates": [150.67564831776562, 0.006334287854335183]}}, {"type": "Feature", "properties": {"norad_id": 32253, "name": "INTELSAT 11 (IS-11)", "group": "intelsat", "lat": -1.3662274265230747, "lon": 54.58634914559412, "alt_km": 36166.44175790869, "timestamp": "2025-12-27T10:28:58.457778+00:00", "meta": {"OBJECT_NAME": "INTELSAT 11 (IS-11)", "OBJECT_ID": "2007-044B", "EPOCH": "2025-12-26T22:22:13.902240", "MEAN_MOTION": 0.99052995, "ECCENTRICITY": 0.0008662, "INCLINATION": 3.1152, "RA_OF_ASC_NODE": 80.8162, "ARG_OF_PERICENTER": 172.1534, "MEAN_ANOMALY": 341.5886, "EPHEMERIS_TYPE": 0, "CLASSIFICATION_TYPE": "U", "NORAD_CAT_ID": 32253, "ELEMENT_SET_NO": 999, "REV_AT_EPOCH": 6674, "BSTAR": 0, "MEAN_MOTION_DOT": -2.25e-06, "MEAN_MOTION_DDOT": 0}, "tle": {"line1": "1 32253U 07044B   25360.93210535 -.00000225  00000+0  00000+0 0  9992", "line2": "2 32253   3.1152  80.8162 0008662 172.1534 341.5886  0.99052995 66745"}}, "geometry": {"type": "Point", "coordinates": [54.58634914559412, -1.3662274265230747]}}, {"type": "Feature", "properties": {"norad_id": 32388, "name": "HORIZONS-2", "group": "intelsat", "lat": 2.1468628255821276, "lon": 179.53524214153683, "alt_km": 35790.657596344296, "timestamp": "2025-12-27T10:28:58.457790+00:00", "meta": {"OBJECT_NAME": "HORIZONS-2", "OBJECT_ID": "2007-063B", "EPOCH": "2025-12-27T01:24:36.095040", "MEAN_MOTION": 1.00268662, "ECCENTRICITY": 0.0004886, "INCLINATION": 2.1568, "RA_OF_ASC_NODE": 82.8029, "ARG_OF_PERICENTER": 197.7808, "MEAN_ANOMALY": 122.5454, "EPHEMERIS_TYPE": 0, "CLASSIFICATION_TYPE": "U", "NORAD_CAT_ID": 32388, "ELEMENT_SET_NO": 999, "REV_AT_EPOCH": 6608, "BSTAR": 0, "MEAN_MOTION_DOT": -2.32e-06, "MEAN_MOTION_DDOT": 0}, "tle": {"line1": "1 32388U 07063B   25361.05875110 -.00000232  00000+0  00000+0 0  9990", "line2": "2 32388   2.1568  82.8029 0004886 197.7808 122.5454  1.00268662 66087"}}, "geometry": {"type": "Point", "coordinates": [179.53524214153683, 2.1468628255821276]}}, {"type": "Feature", "properties": {"norad_id": 32729, "name": "DIRECTV 11", "group": "intelsat", "lat": -0.02542902291897653, "lon": 154.09221981671953, "alt_km": 35786.93902395285, "timestamp": "2025-12-27T10:28:58.457801+00:00", "meta": {"OBJECT_NAME": "DIRECTV 11", "OBJECT_ID": "2008-013A", "EPOCH": "2025-12-24T22:53:59.758368", "MEAN_MOTION": 1.00260442, "ECCENTRICITY": 0.0001047, "INCLINATION": 0.0475, "RA_OF_ASC_NODE": 199.7105, "ARG_OF_PERICENTER": 11.4593, "MEAN_ANOMALY": 126.8496, "EPHEMERIS_TYPE": 0, "CLASSIFICATION_TYPE": "U", "NORAD_CAT_ID": 32729, "ELEMENT_SET_NO": 999, "REV_AT_EPOCH": 4384, "BSTAR": 0, "MEAN_MOTION_DOT": -1.03e-06, "MEAN_MOTION_DDOT": 0}, "tle": {"line1": "1 32729U 08013A   25358.95416387 -.00000103  00000+0  00000+0 0  9994", "line2": "2 32729   0.0475 199.7105 0001047  11.4593 126.8496  1.00260442 43842"}}, "geometry": {"type": "Point", "coordinates": [154.09221981671953, -0.02542902291897653]}}, {"type": "Feature", "properties": {"norad_id": 32951, "name": "GALAXY 18 (G-18)", "group": "intelsat", "lat": 0.03217403252394964, "lon": 130.3781570541773, "alt_km": 35799.09722293842, "timestamp": "2025-12-27T10:28:58.457813+00:00", "meta": {"OBJECT_NAME": "GALAXY 18 (G-18)", "OBJECT_ID": "2008-024A", "EPOCH": "2025-12-27T04:39:36.425376", "MEAN_MOTION": 1.002713, "ECCENTRICITY": 0.000338, "INCLINATION": 0.0194, "RA_OF_ASC_NODE": 7.6676, "ARG_OF_PERICENTER": 277.1548, "MEAN_ANOMALY": 117.9994, "EPHEMERIS_TYPE": 0, "CLASSIFICATION_TYPE": "U", "NORAD_CAT_ID": 32951, "ELEMENT_SET_NO": 999, "REV_AT_EPOCH": 4412, "BSTAR": 0, "MEAN_MOTION_DOT": 0, "MEAN_MOTION_DDOT": 0}, "tle": {"line1": "1 32951U 08024A   25361.19417159  .00000000  00000+0  00000+0 0  9996", "line2": "2 32951   0.0194   7.6676 0003380 277.1548 117.9994  1.00271300 44121"}}, "geometry": {"type": "Point", "coordinates": [130.3781570541773, 0.03217403252394964]}}]}